OPTICUBE 04             
1 41851U 16067D   26068.51005515  .00003771  00000+0  24102-3 0  9992
2 41851  98.0811 275.5525 0017089  94.6311 265.6869 15.09188144510131
STARLINK-34951          
1 65293U 25184W   26068.71454999  .00001767  00000+0  12663-3 0  9996
2 65293  97.6018 122.6725 0000950 108.1440 251.9890 15.05647708 31309
